[{"OBJECT_NAME":"ION SCV-010","OBJECT_ID":"2023-054Q","EPOCH":"2026-03-09T16:02:35.904768","MEAN_MOTION":15.25210322,"ECCENTRICITY":0.00127052,"INCLINATION":97.3904,"RA_OF_ASC_NODE":319.4312,"ARG_OF_PERICENTER":188.785,"MEAN_ANOMALY":171.3168,"EPHEMERIS_TYPE":0,"CLASSIFICATION_TYPE":"U","NORAD_CAT_ID":56192,"ELEMENT_SET_NO":999,"REV_AT_EPOCH":16102,"BSTAR":0.00025045068,"MEAN_MOTION_DOT":6.231e-5,"MEAN_MOTION_DDOT":0},{"OBJECT_NAME":"STARLINK-30264","OBJECT_ID":"2023-115P","EPOCH":"2026-03-09T09:47:23.648640","MEAN_MOTION":15.27567754,"ECCENTRICITY":7.537e-5,"INCLINATION":42.996,"RA_OF_ASC_NODE":210.4823,"ARG_OF_PERICENTER":146.8642,"MEAN_ANOMALY":213.2257,"EPHEMERIS_TYPE":0,"CLASSIFICATION_TYPE":"U","NORAD_CAT_ID":57534,"ELEMENT_SET_NO":999,"REV_AT_EPOCH":14531,"BSTAR":7.17316e-6,"MEAN_MOTION_DOT":-6.4e-7,"MEAN_MOTION_DDOT":0}]
